[{"OBJECT_NAME":"WNISAT 1R","OBJECT_ID":"2017-042L","EPOCH":"2026-03-09T20:41:10.613760","MEAN_MOTION":15.01153186,"ECCENTRICITY":0.00133015,"INCLINATION":97.4515,"RA_OF_ASC_NODE":228.7079,"ARG_OF_PERICENTER":131.3338,"MEAN_ANOMALY":228.9034,"EPHEMERIS_TYPE":0,"CLASSIFICATION_TYPE":"U","NORAD_CAT_ID":42835,"ELEMENT_SET_NO":999,"REV_AT_EPOCH":47160,"BSTAR":0.00037839839,"MEAN_MOTION_DOT":4.802e-5,"MEAN_MOTION_DDOT":0},{"OBJECT_NAME":"STARLINK-5660","OBJECT_ID":"2023-013E","EPOCH":"2026-03-09T01:48:47.315232","MEAN_MOTION":15.02536319,"ECCENTRICITY":0.00010805,"INCLINATION":43.0036,"RA_OF_ASC_NODE":303.9656,"ARG_OF_PERICENTER":274.6932,"MEAN_ANOMALY":85.3787,"EPHEMERIS_TYPE":0,"CLASSIFICATION_TYPE":"U","NORAD_CAT_ID":55335,"ELEMENT_SET_NO":999,"REV_AT_EPOCH":17161,"BSTAR":3.6284553e-5,"MEAN_MOTION_DOT":2.87e-6,"MEAN_MOTION_DDOT":0}]
